[{"OBJECT_NAME":"STARLINK-1262","OBJECT_ID":"2020-019G","EPOCH":"2026-03-04T12:00:00.998784","MEAN_MOTION":15.23165346,"ECCENTRICITY":0.0001251,"INCLINATION":53.1279,"RA_OF_ASC_NODE":189.0746,"ARG_OF_PERICENTER":78.0947,"MEAN_ANOMALY":294.7229,"EPHEMERIS_TYPE":0,"CLASSIFICATION_TYPE":"U","NORAD_CAT_ID":45366,"ELEMENT_SET_NO":999,"REV_AT_EPOCH":571,"BSTAR":0.030887,"MEAN_MOTION_DOT":0.00800114,"MEAN_MOTION_DDOT":0},{"OBJECT_NAME":"STARLINK-1273","OBJECT_ID":"2020-019H","EPOCH":"2026-03-04T11:38:36.679200","MEAN_MOTION":15.4353206,"ECCENTRICITY":0.0001299,"INCLINATION":53.0515,"RA_OF_ASC_NODE":179.5579,"ARG_OF_PERICENTER":334.5173,"MEAN_ANOMALY":25.5767,"EPHEMERIS_TYPE":0,"CLASSIFICATION_TYPE":"U","NORAD_CAT_ID":45367,"ELEMENT_SET_NO":999,"REV_AT_EPOCH":32909,"BSTAR":0.0010406,"MEAN_MOTION_DOT":0.00047299,"MEAN_MOTION_DDOT":0},{"OBJECT_NAME":"STARLINK-1276","OBJECT_ID":"2020-019J","EPOCH":"2026-03-04T09:02:45.495744","MEAN_MOTION":15.06406523,"ECCENTRICITY":0.000159,"INCLINATION":53.0573,"RA_OF_ASC_NODE":190.4651,"ARG_OF_PERICENTER":129.7743,"MEAN_ANOMALY":230.3387,"EPHEMERIS_TYPE":0,"CLASSIFICATION_TYPE":"U","NORAD_CAT_ID":45368,"ELEMENT_SET_NO":999,"REV_AT_EPOCH":32893,"BSTAR":8.5368e-5,"MEAN_MOTION_DOT":9.9e-6,"MEAN_MOTION_DDOT":0},{"OBJECT_NAME":"STARLINK-1277","OBJECT_ID":"2020-019K","EPOCH":"2026-03-04T11:10:52.579776","MEAN_MOTION":15.47812878,"ECCENTRICITY":0.0002845,"INCLINATION":53.0528,"RA_OF_ASC_NODE":177.6181,"ARG_OF_PERICENTER":355.1507,"MEAN_ANOMALY":4.9472,"EPHEMERIS_TYPE":0,"CLASSIFICATION_TYPE":"U","NORAD_CAT_ID":45369,"ELEMENT_SET_NO":999,"REV_AT_EPOCH":32912,"BSTAR":0.0017955,"MEAN_MOTION_DOT":0.00095507,"MEAN_MOTION_DDOT":0},{"OBJECT_NAME":"STARLINK-1281","OBJECT_ID":"2020-019L","EPOCH":"2026-03-04T12:00:00.998784","MEAN_MOTION":15.23163413,"ECCENTRICITY":0.0001517,"INCLINATION":53.1282,"RA_OF_ASC_NODE":189.2736,"ARG_OF_PERICENTER":91.3221,"MEAN_ANOMALY":271.6375,"EPHEMERIS_TYPE":0,"CLASSIFICATION_TYPE":"U","NORAD_CAT_ID":45370,"ELEMENT_SET_NO":999,"REV_AT_EPOCH":578,"BSTAR":0.050882,"MEAN_MOTION_DOT":0.01319314,"MEAN_MOTION_DDOT":0},{"OBJECT_NAME":"STARLINK-1300","OBJECT_ID":"2020-019Q","EPOCH":"2026-03-04T12:00:00.998784","MEAN_MOTION":15.25279131,"ECCENTRICITY":0.0001145,"INCLINATION":53.1372,"RA_OF_ASC_NODE":189.2824,"ARG_OF_PERICENTER":85.7382,"MEAN_ANOMALY":152.5746,"EPHEMERIS_TYPE":0,"CLASSIFICATION_TYPE":"U","NORAD_CAT_ID":45374,"ELEMENT_SET_NO":999,"REV_AT_EPOCH":571,"BSTAR":0.034111,"MEAN_MOTION_DOT":0.00940771,"MEAN_MOTION_DDOT":0},{"OBJECT_NAME":"STARLINK-1302","OBJECT_ID":"2020-019R","EPOCH":"2026-03-04T11:47:31.214400","MEAN_MOTION":15.48627849,"ECCENTRICITY":0.0001716,"INCLINATION":53.0531,"RA_OF_ASC_NODE":176.7967,"ARG_OF_PERICENTER":204.7122,"MEAN_ANOMALY":155.3803,"EPHEMERIS_TYPE":0,"CLASSIFICATION_TYPE":"U","NORAD_CAT_ID":45375,"ELEMENT_SET_NO":999,"REV_AT_EPOCH":32913,"BSTAR":0.0038304,"MEAN_MOTION_DOT":0.00213361,"MEAN_MOTION_DDOT":0},{"OBJECT_NAME":"STARLINK-1304","OBJECT_ID":"2020-019S","EPOCH":"2026-03-04T11:30:36.711648","MEAN_MOTION":15.47213247,"ECCENTRICITY":0.0002356,"INCLINATION":53.0515,"RA_OF_ASC_NODE":174.4146,"ARG_OF_PERICENTER":319.8143,"MEAN_ANOMALY":40.2689,"EPHEMERIS_TYPE":0,"CLASSIFICATION_TYPE":"U","NORAD_CAT_ID":45376,"ELEMENT_SET_NO":999,"REV_AT_EPOCH":32916,"BSTAR":0.001519,"MEAN_MOTION_DOT":0.00078891,"MEAN_MOTION_DDOT":0},{"OBJECT_NAME":"STARLINK-1305","OBJECT_ID":"2020-019T","EPOCH":"2026-03-04T11:53:39.293088","MEAN_MOTION":15.51865456,"ECCENTRICITY":0.0002867,"INCLINATION":53.0455,"RA_OF_ASC_NODE":157.2799,"ARG_OF_PERICENTER":102.0586,"MEAN_ANOMALY":258.0744,"EPHEMERIS_TYPE":0,"CLASSIFICATION_TYPE":"U","NORAD_CAT_ID":45377,"ELEMENT_SET_NO":999,"REV_AT_EPOCH":32941,"BSTAR":0.0018782,"MEAN_MOTION_DOT":0.00115648,"MEAN_MOTION_DDOT":0},{"OBJECT_NAME":"STARLINK-1319","OBJECT_ID":"2020-019V","EPOCH":"2026-03-04T12:00:00.998784","MEAN_MOTION":15.64571586,"ECCENTRICITY":0.0001752,"INCLINATION":53.0452,"RA_OF_ASC_NODE":155.1804,"ARG_OF_PERICENTER":57.9476,"MEAN_ANOMALY":315.067,"EPHEMERIS_TYPE":0,"CLASSIFICATION_TYPE":"U","NORAD_CAT_ID":45379,"ELEMENT_SET_NO":999,"REV_AT_EPOCH":591,"BSTAR":0.00032962,"MEAN_MOTION_DOT":0.00032001,"MEAN_MOTION_DDOT":0},{"OBJECT_NAME":"STARLINK-1266","OBJECT_ID":"2020-019Z","EPOCH":"2026-03-04T12:00:00.998784","MEAN_MOTION":15.44530985,"ECCENTRICITY":0.0003179,"INCLINATION":53.0502,"RA_OF_ASC_NODE":157.6793,"ARG_OF_PERICENTER":353.381,"MEAN_ANOMALY":97.0716,"EPHEMERIS_TYPE":0,"CLASSIFICATION_TYPE":"U","NORAD_CAT_ID":45383,"ELEMENT_SET_NO":999,"REV_AT_EPOCH":588,"BSTAR":0.0013606,"MEAN_MOTION_DOT":0.00064265,"MEAN_MOTION_DDOT":0},{"OBJECT_NAME":"STARLINK-1267","OBJECT_ID":"2020-019AA","EPOCH":"2026-03-04T11:00:45.363168","MEAN_MOTION":15.4863718,"ECCENTRICITY":0.00045,"INCLINATION":53.0535,"RA_OF_ASC_NODE":152.0754,"ARG_OF_PERICENTER":212.3603,"MEAN_ANOMALY":147.7129,"EPHEMERIS_TYPE":0,"CLASSIFICATION_TYPE":"U","NORAD_CAT_ID":45384,"ELEMENT_SET_NO":999,"REV_AT_EPOCH":32947,"BSTAR":0.0012448,"MEAN_MOTION_DOT":0.00067786,"MEAN_MOTION_DDOT":0},{"OBJECT_NAME":"STARLINK-1272","OBJECT_ID":"2020-019AC","EPOCH":"2026-03-04T11:09:34.908768","MEAN_MOTION":15.55221917,"ECCENTRICITY":0.000186,"INCLINATION":53.0449,"RA_OF_ASC_NODE":135.0798,"ARG_OF_PERICENTER":121.045,"MEAN_ANOMALY":239.0743,"EPHEMERIS_TYPE":0,"CLASSIFICATION_TYPE":"U","NORAD_CAT_ID":45386,"ELEMENT_SET_NO":999,"REV_AT_EPOCH":32971,"BSTAR":0.0020367,"MEAN_MOTION_DOT":0.00142203,"MEAN_MOTION_DDOT":0},{"OBJECT_NAME":"STARLINK-1274","OBJECT_ID":"2020-019AD","EPOCH":"2026-03-04T11:42:23.182848","MEAN_MOTION":15.46068898,"ECCENTRICITY":0.0004325,"INCLINATION":53.0277,"RA_OF_ASC_NODE":127.7796,"ARG_OF_PERICENTER":220.5268,"MEAN_ANOMALY":139.5417,"EPHEMERIS_TYPE":0,"CLASSIFICATION_TYPE":"U","NORAD_CAT_ID":45387,"ELEMENT_SET_NO":999,"REV_AT_EPOCH":32981,"BSTAR":0.0014795,"MEAN_MOTION_DOT":0.00073809,"MEAN_MOTION_DDOT":0},{"OBJECT_NAME":"STARLINK-1280","OBJECT_ID":"2020-019AE","EPOCH":"2026-03-04T11:29:07.979712","MEAN_MOTION":15.64813304,"ECCENTRICITY":0.0001141,"INCLINATION":53.0437,"RA_OF_ASC_NODE":148.0711,"ARG_OF_PERICENTER":101.4743,"MEAN_ANOMALY":258.6399,"EPHEMERIS_TYPE":0,"CLASSIFICATION_TYPE":"U","NORAD_CAT_ID":45388,"ELEMENT_SET_NO":999,"REV_AT_EPOCH":32952,"BSTAR":0.0007689,"MEAN_MOTION_DOT":0.00076527,"MEAN_MOTION_DDOT":0},{"OBJECT_NAME":"STARLINK-1283","OBJECT_ID":"2020-019AF","EPOCH":"2026-03-04T10:51:48.313728","MEAN_MOTION":15.55138727,"ECCENTRICITY":0.0004251,"INCLINATION":53.0454,"RA_OF_ASC_NODE":135.345,"ARG_OF_PERICENTER":219.7728,"MEAN_ANOMALY":140.297,"EPHEMERIS_TYPE":0,"CLASSIFICATION_TYPE":"U","NORAD_CAT_ID":45389,"ELEMENT_SET_NO":999,"REV_AT_EPOCH":32971,"BSTAR":0.0019641,"MEAN_MOTION_DOT":0.00136631,"MEAN_MOTION_DDOT":0}]
