STARLINK-1262           
1 45366U 20019G   26063.50001156  .00800114  00000+0  30887-1 0  9991
2 45366  53.1279 189.0746 0001251  78.0947 294.7229 15.23165346  5716
STARLINK-1273           
1 45367U 20019H   26063.48514675  .00047299  00000+0  10406-2 0  9997
2 45367  53.0515 179.5579 0001299 334.5173  25.5767 15.43532060329090
STARLINK-1276           
1 45368U 20019J   26063.37691546  .00000990  00000+0  85368-4 0  9997
2 45368  53.0573 190.4651 0001590 129.7743 230.3387 15.06406523328938
STARLINK-1277           
1 45369U 20019K   26063.46588634  .00095507  00000+0  17955-2 0  9994
2 45369  53.0528 177.6181 0002845 355.1507   4.9472 15.47812878329122
STARLINK-1281           
1 45370U 20019L   26063.50001156  .01319314  00000+0  50882-1 0  9991
2 45370  53.1282 189.2736 0001517  91.3221 271.6375 15.23163413  5780
STARLINK-1300           
1 45374U 20019Q   26063.50001156  .00940771  00000+0  34111-1 0  9998
2 45374  53.1372 189.2824 0001145  85.7382 152.5746 15.25279131  5713
STARLINK-1302           
1 45375U 20019R   26063.49133350  .00213361  00000+0  38304-2 0  9996
2 45375  53.0531 176.7967 0001716 204.7122 155.3803 15.48627849329136
STARLINK-1304           
1 45376U 20019S   26063.47959157  .00078891  00000+0  15190-2 0  9991
2 45376  53.0515 174.4146 0002356 319.8143  40.2689 15.47213247329164
STARLINK-1305           
1 45377U 20019T   26063.49559367  .00115648  00000+0  18782-2 0  9995
2 45377  53.0455 157.2799 0002867 102.0586 258.0744 15.51865456329410
STARLINK-1319           
1 45379U 20019V   26063.50001156  .00032001  00000+0  32962-3 0  9995
2 45379  53.0452 155.1804 0001752  57.9476 315.0670 15.64571586  5911
STARLINK-1266           
1 45383U 20019Z   26063.50001156  .00064265  00000+0  13606-2 0  9990
2 45383  53.0502 157.6793 0003179 353.3810  97.0716 15.44530985  5886
STARLINK-1267           
1 45384U 20019AA  26063.45885837  .00067786  00000+0  12448-2 0  9995
2 45384  53.0535 152.0754 0004500 212.3603 147.7129 15.48637180329476
STARLINK-1272           
1 45386U 20019AC  26063.46498737  .00142203  00000+0  20367-2 0  9994
2 45386  53.0449 135.0798 0001860 121.0450 239.0743 15.55221917329712
STARLINK-1274           
1 45387U 20019AD  26063.48776832  .00073809  00000+0  14795-2 0  9995
2 45387  53.0277 127.7796 0004325 220.5268 139.5417 15.46068898329819
STARLINK-1280           
1 45388U 20019AE  26063.47856458  .00076527  00000+0  76890-3 0  9993
2 45388  53.0437 148.0711 0001141 101.4743 258.6399 15.64813304329529
STARLINK-1283           
1 45389U 20019AF  26063.45264252  .00136631  00000+0  19641-2 0  9990
2 45389  53.0454 135.3450 0004251 219.7728 140.2970 15.55138727329710
